[{"OBJECT_NAME":"SKYSAT-C5","OBJECT_ID":"2016-058C","EPOCH":"2026-03-09T16:40:58.853568","MEAN_MOTION":15.34290188,"ECCENTRICITY":0.00017286,"INCLINATION":97.0614,"RA_OF_ASC_NODE":113.7598,"ARG_OF_PERICENTER":84.5722,"MEAN_ANOMALY":275.5719,"EPHEMERIS_TYPE":0,"CLASSIFICATION_TYPE":"U","NORAD_CAT_ID":41772,"ELEMENT_SET_NO":999,"REV_AT_EPOCH":52849,"BSTAR":0.00029009039,"MEAN_MOTION_DOT":9.558e-5,"MEAN_MOTION_DDOT":0},{"OBJECT_NAME":"LEMUR-2-TOMATOKECHUP","OBJECT_ID":"2024-149D","EPOCH":"2026-03-09T22:52:41.142144","MEAN_MOTION":15.33766408,"ECCENTRICITY":0.00014937,"INCLINATION":97.3839,"RA_OF_ASC_NODE":150.8953,"ARG_OF_PERICENTER":182.6292,"MEAN_ANOMALY":177.4944,"EPHEMERIS_TYPE":0,"CLASSIFICATION_TYPE":"U","NORAD_CAT_ID":60471,"ELEMENT_SET_NO":999,"REV_AT_EPOCH":8694,"BSTAR":0.00044771465,"MEAN_MOTION_DOT":0.00014552,"MEAN_MOTION_DDOT":0}]
